ONEWEB-0410             
1 51622U 22012A   23360.88113505 -.00000124  00000+0 -35196-3 0  9993
2 51622  87.9199 185.4493 0001488  39.1905 320.9334 13.17648071 94749
ONEWEB-0411             
1 51623U 22012B   23360.62759664 -.00000515  00000+0 -15123-2 0  9999
2 51623  87.8905 215.7140 0001723  85.6211 274.5113 13.10372065 90956
ONEWEB-0415             
1 51624U 22012C   23360.62435547 -.00000472  00000+0 -13886-2 0  9997
2 51624  87.8906 215.7437 0001786  86.6361 273.4971 13.10367519 90951
ONEWEB-0416             
1 51625U 22012D   23360.63571177 -.00000568  00000+0 -16639-2 0  9994
2 51625  87.8910 215.7270 0001341  87.7046 272.4235 13.10373526 90992
ONEWEB-0422             
1 51626U 22012E   23360.89062733  .00000016  00000+0  72022-5 0  9993
2 51626  87.9202 185.4435 0001498 122.9365 237.1911 13.17651346 94857
ONEWEB-0423             
1 51627U 22012F   23360.88430453 -.00000102  00000+0 -29648-3 0  9993
2 51627  87.9206 185.4425 0001342  90.9493 269.1792 13.17651216 94741
ONEWEB-0425             
1 51628U 22012G   23360.64548389 -.00000362  00000+0 -10731-2 0  9996
2 51628  87.8907 215.7143 0001034  68.3869 291.7369 13.10375058 90991
ONEWEB-0428             
1 51629U 22012H   23360.62597439 -.00000415  00000+0 -12251-2 0  9993
2 51629  87.8905 215.7312 0001536  97.2249 262.9053 13.10371737 90954
